NORAD_CAT_ID,OBJECT_NAME,OBJECT_TYPE,EPOCH,MEAN_MOTION,ECCENTRICITY,INCLINATION,RA_OF_ASC_NODE,ARG_OF_PERICENTER,MEAN_ANOMALY,BSTAR,MEAN_MOTION_DOT,MEAN_MOTION_DDOT,TLE_LINE0,TLE_LINE1,TLE_LINE2,SEMIMAJOR_AXIS,PERIOD,APOGEE,PERIGEE,DECAYED
53000.0,STARLINK-4194,PAYLOAD,2024-07-07 08:28:52,15.08818487,0.0001048,53.2178,314.029,29.6437,330.4614,0.00046756,7.157e-05,0.0,0 STARLINK-4194,1 53000U 22076Q   24189.35338877  .00007157  00000-0  46756-3 0  9994,2 53000  53.2178 314.0290 0001048  29.6437 330.4614 15.08818487110709,6917.946,95.439,540.536,539.086,0.0
53000.0,STARLINK-4194,PAYLOAD,2024-07-07 18:01:11,15.08870702,0.0001387,53.2155,312.2451,46.2458,313.8648,0.0023823,0.00037862,0.0,0 STARLINK-4194,1 53000U 22076Q   24189.75082441  .00037862  00000-0  23823-2 0  9996,2 53000  53.2155 312.2451 0001387  46.2458 313.8648 15.08870702111236,6917.787,95.436,540.611,538.692,0.0
53000.0,STARLINK-4194,PAYLOAD,2024-07-08 13:05:48,15.08858757,0.0001347,53.2172,308.6732,60.1965,299.9161,0.00043945,6.716e-05,0.0,0 STARLINK-4194,1 53000U 22076Q   24190.54569767  .00006716  00000-0  43945-3 0  9998,2 53000  53.2172 308.6732 0001347  60.1965 299.9161 15.08858757111353,6917.823,95.436,540.62,538.756,0.0
53000.0,STARLINK-4194,PAYLOAD,2024-07-08 14:41:11,15.08860067,0.0001251,53.2174,308.3773,69.8961,290.2165,0.00042078,6.419e-05,0.0,0 STARLINK-4194,1 53000U 22076Q   24190.61193674  .00006419  00000-0  42078-3 0  9992,2 53000  53.2174 308.3773 0001251  69.8961 290.2165 15.08860067110896,6917.819,95.436,540.549,538.819,0.0
53000.0,STARLINK-4194,PAYLOAD,2024-07-09 12:56:34,15.08857292,0.0001559,53.2175,304.2126,71.7456,288.3705,-0.00069646,-0.0001136,0.0,0 STARLINK-4194,1 53000U 22076Q   24191.53928559 -.00011360  00000-0 -69646-3 0  9995,2 53000  53.2175 304.2126 0001559  71.7456 288.3705 15.08857292111509,6917.828,95.436,540.771,538.614,0.0
53000.0,STARLINK-4194,PAYLOAD,2024-07-09 14:31:58,15.0883778,0.0001232,53.2173,303.9151,74.3701,285.7427,0.00018822,2.709e-05,0.0,0 STARLINK-4194,1 53000U 22076Q   24191.60554008  .00002709  00000-0  18822-3 0  9992,2 53000  53.2173 303.9151 0001232  74.3701 285.7427 15.08837780111042,6917.887,95.438,540.604,538.9,0.0
53000.0,STARLINK-4194,PAYLOAD,2024-07-10 00:04:16,15.08855316,0.0001227,53.2167,302.1298,66.6771,293.435,7.9907e-05,9.85e-06,0.0,0 STARLINK-4194,1 53000U 22076Q   24192.00296673  .00000985  00000-0  79907-4 0  9994,2 53000  53.2167 302.1298 0001227  66.6771 293.4350 15.08855316111577,6917.834,95.437,540.547,538.85,0.0
53000.0,STARLINK-4194,PAYLOAD,2024-07-10 11:11:59,15.08834246,0.0001299,53.2185,300.0524,87.314,272.8001,-1.6227e-05,-5.46e-06,0.0,0 STARLINK-4194,1 53000U 22076Q   24192.46666297 -.00000546  00000-0 -16227-4 0  9998,2 53000  53.2185 300.0524 0001299  87.3140 272.8001 15.08834246111646,6917.898,95.438,540.662,538.864,0.0
53000.0,STARLINK-4194,PAYLOAD,2024-07-10 14:22:45,15.08837064,0.0001374,53.219,299.4601,95.5851,264.5298,1.8575e-05,8e-08,0.0,0 STARLINK-4194,1 53000U 22076Q   24192.59914068  .00000008  00000-0  18575-4 0  9993,2 53000  53.2190 299.4601 0001374  95.5851 264.5298 15.08837064111190,6917.889,95.438,540.705,538.804,0.0
53000.0,STARLINK-4194,PAYLOAD,2024-07-11 14:13:33,15.08812236,0.0001474,53.2167,294.9949,112.2884,247.8265,-0.00036224,-6.044e-05,0.0,0 STARLINK-4194,1 53000U 22076Q   24193.59274383 -.00006044  00000-0 -36224-3 0  9991,2 53000  53.2167 294.9949 0001474 112.2884 247.8265 15.08812236111342,6917.965,95.439,540.85,538.811,0.0
53000.0,STARLINK-4194,PAYLOAD,2024-07-11 15:48:57,15.08803653,0.0001328,53.2172,294.6994,82.6539,277.4604,-0.00039663,-6.588e-05,0.0,0 STARLINK-4194,1 53000U 22076Q   24193.65899739 -.00006588  00000-0 -39663-3 0  9999,2 53000  53.2172 294.6994 0001328  82.6539 277.4604 15.08803653111822,6917.991,95.44,540.775,538.938,0.0
53000.0,STARLINK-4194,PAYLOAD,2024-07-12 12:28:57,15.08850836,0.0001346,53.2164,290.8345,98.4845,261.63,0.0004291,6.55e-05,0.0,0 STARLINK-4194,1 53000U 22076Q   24194.52010659  .00006550  00000-0  42910-3 0  9998,2 53000  53.2164 290.8345 0001346  98.4845 261.6300 15.08850836111953,6917.847,95.437,540.643,538.781,0.0
53000.0,STARLINK-4194,PAYLOAD,2024-07-12 14:04:20,15.08852642,0.0001327,53.2163,290.537,95.007,265.1074,0.00045213,6.917e-05,0.0,0 STARLINK-4194,1 53000U 22076Q   24194.58634601  .00006917  00000-0  45213-3 0  9999,2 53000  53.2163 290.5370 0001327  95.0070 265.1074 15.08852642111492,6917.842,95.437,540.625,538.789,0.0
53000.0,STARLINK-4194,PAYLOAD,2024-07-12 15:39:43,15.08853626,0.0001313,53.2162,290.2397,96.8217,263.2924,0.00045976,7.039e-05,0.0,0 STARLINK-4194,1 53000U 22076Q   24194.65258528  .00007039  00000-0  45976-3 0  9999,2 53000  53.2162 290.2397 0001313  96.8217 263.2924 15.08853626111502,6917.839,95.437,540.612,538.795,0.0
53000.0,STARLINK-4194,PAYLOAD,2024-07-13 12:19:44,15.0884836,0.0001337,53.2149,286.372,89.9916,270.1229,0.00031398,4.714e-05,0.0,0 STARLINK-4194,1 53000U 22076Q   24195.51370509  .00004714  00000-0  31398-3 0  9999,2 53000  53.2149 286.3720 0001337  89.9916 270.1229 15.08848360112109,6917.855,95.437,540.645,538.795,0.0
53000.0,STARLINK-4194,PAYLOAD,2024-07-13 23:27:25,15.08864053,0.0001446,53.215,284.2923,76.5892,283.5261,0.00058473,9.036e-05,0.0,0 STARLINK-4194,1 53000U 22076Q   24195.97737837  .00009036  00000-0  58473-3 0  9995,2 53000  53.2150 284.2923 0001446  76.5892 283.5261 15.08864053112177,6917.807,95.436,540.672,538.672,0.0
53000.0,STARLINK-4194,PAYLOAD,2024-07-14 12:10:30,15.0885002,0.0001616,53.2168,281.9096,94.7167,265.4009,-5.9668e-05,-1.238e-05,0.0,0 STARLINK-4194,1 53000U 22076Q   24196.50729561 -.00001238  00000-0 -59668-4 0  9996,2 53000  53.2168 281.9096 0001616  94.7167 265.4009 15.08850020112254,6917.85,95.437,540.833,538.597,0.0
53000.0,STARLINK-4194,PAYLOAD,2024-07-14 15:21:16,15.08853337,0.0001711,53.2173,281.3147,100.8763,259.2422,7.1214e-05,8.46e-06,0.0,0 STARLINK-4194,1 53000U 22076Q   24196.63977584  .00000846  00000-0  71214-4 0  9993,2 53000  53.2173 281.3147 0001711 100.8763 259.2422 15.08853337111802,6917.84,95.437,540.888,538.521,0.0
53000.0,STARLINK-4194,PAYLOAD,2024-07-15 12:01:17,15.08842445,0.0001506,53.2165,277.4518,93.6495,266.4669,3.3497e-05,2.45e-06,0.0,0 STARLINK-4194,1 53000U 22076Q   24197.50089633  .00000245  00000-0  33497-4 0  9993,2 53000  53.2165 277.4518 0001506  93.6495 266.4669 15.08842445112402,6917.873,95.437,540.78,538.696,0.0
53000.0,STARLINK-4194,PAYLOAD,2024-07-16 11:52:04,15.0884209,0.0001315,53.2174,272.9925,93.7034,266.4108,0.00016294,2.306e-05,0.0,0 STARLINK-4194,1 53000U 22076Q   24198.49449878  .00002306  00000-0  16294-3 0  9998,2 53000  53.2174 272.9925 0001315  93.7034 266.4108 15.08842090112080,6917.874,95.437,540.649,538.829,0.0
53000.0,STARLINK-4194,PAYLOAD,2024-07-17 05:21:19,15.08837347,0.0001356,53.2176,269.721,99.2317,260.8829,0.00012749,1.742e-05,0.0,0 STARLINK-4194,1 53000U 22076Q   24199.22314208  .00001742  00000-0  12749-3 0  9992,2 53000  53.2176 269.7210 0001356  99.2317 260.8829 15.08837347112664,6917.888,95.438,540.692,538.815,0.0
53000.0,STARLINK-4194,PAYLOAD,2024-07-17 11:42:52,15.08830272,0.000116,53.2164,268.5289,95.4933,264.6192,-1.5035e-05,-5.27e-06,0.0,0 STARLINK-4194,1 53000U 22076Q   24199.48810656 -.00000527  00000-0 -15035-4 0  9992,2 53000  53.2164 268.5289 0001160  95.4933 264.6192 15.08830272112709,6917.91,95.438,540.578,538.973,0.0
53000.0,STARLINK-4194,PAYLOAD,2024-07-18 11:33:39,15.08838688,0.0001174,53.216,264.0708,98.4931,261.6194,0.00010231,1.341e-05,0.0,0 STARLINK-4194,1 53000U 22076Q   24200.48170597  .00001341  00000-0  10231-3 0  9993,2 53000  53.2160 264.0708 0001174  98.4931 261.6194 15.08838688112852,6917.884,95.438,540.562,538.937,0.0
53000.0,STARLINK-4194,PAYLOAD,2024-07-19 11:24:26,15.08838542,0.0001225,53.2157,259.6104,81.4334,278.6797,0.00019011,2.739e-05,0.0,0 STARLINK-4194,1 53000U 22076Q   24201.47530951  .00002739  00000-0  19011-3 0  9994,2 53000  53.2157 259.6104 0001225  81.4334 278.6797 15.08838542112535,6917.885,95.438,540.597,538.902,0.0
53000.0,STARLINK-4194,PAYLOAD,2024-07-20 03:18:17,15.08847057,0.0001263,53.2154,256.6372,83.5011,276.6125,0.00016711,2.373e-05,0.0,0 STARLINK-4194,1 53000U 22076Q   24202.13770468  .00002373  00000-0  16711-3 0  9995,2 53000  53.2154 256.6372 0001263  83.5011 276.6125 15.08847057113101,6917.859,95.437,540.598,538.85,0.0
53000.0,STARLINK-4194,PAYLOAD,2024-07-20 09:39:50,15.08845571,0.0001259,53.2152,255.4467,76.339,283.7743,0.00012636,1.724e-05,0.0,0 STARLINK-4194,1 53000U 22076Q   24202.40266532  .00001724  00000-0  12636-3 0  9998,2 53000  53.2152 255.4467 0001259  76.3390 283.7743 15.08845571112671,6917.863,95.437,540.599,538.857,0.0
53000.0,STARLINK-4194,PAYLOAD,2024-07-20 20:47:31,15.08857547,0.0001272,53.2156,253.366,81.8609,278.2527,0.00029001,4.333e-05,0.0,0 STARLINK-4194,1 53000U 22076Q   24202.86633714  .00004333  00000-0  29001-3 0  9991,2 53000  53.2156 253.3660 0001272  81.8609 278.2527 15.08857547112749,6917.827,95.436,540.572,538.812,0.0
53000.0,STARLINK-4194,PAYLOAD,2024-07-21 03:09:04,15.0884677,0.0002176,53.215,252.1745,86.6871,273.437,9.4799e-05,1.221e-05,0.0,0 STARLINK-4194,1 53000U 22076Q   24203.13130435  .00001221  00000-0  94799-4 0  9994,2 53000  53.2150 252.1745 0002176  86.6871 273.4370 15.08846770113258,6917.86,95.437,541.23,538.219,0.0
53000.0,STARLINK-4194,PAYLOAD,2024-07-21 09:30:37,15.08838947,0.0001514,53.2153,250.9861,86.0946,274.0219,-2.0092e-05,-6.08e-06,0.0,0 STARLINK-4194,1 53000U 22076Q   24203.39626634 -.00000608  00000-0 -20092-4 0  9998,2 53000  53.2153 250.9861 0001514  86.0946 274.0219 15.08838947112826,6917.884,95.438,540.796,538.701,0.0
53000.0,STARLINK-4194,PAYLOAD,2024-07-22 09:21:24,15.08844074,0.0001406,53.2151,246.5262,87.4574,272.6579,0.00012767,1.745e-05,0.0,0 STARLINK-4194,1 53000U 22076Q   24204.38986408  .00001745  00000-0  12767-3 0  9996,2 53000  53.2151 246.5262 0001406  87.4574 272.6579 15.08844074112979,6917.868,95.437,540.706,538.76,0.0
